{"type":"FeatureCollection","features":[{"type":"Feature","id":1,"geometry":{"type":"Point","coordinates":[-123.74779399037983,41.96849414452024]},"properties":{"OBJECTID":1,"CT_NO":"90100018","MAP_LABEL_NAME":"Collier Tunnel Safety Roadside Rest Area - Nb & Sb","CITY":"Gasquet","ZIPCODE":"95543","POSTMILE_P":" ","POSTMILE":33.3,"POSTMILE_S":" ","LATITUDE":41.968489,"LONGITUDE":-123.74778,"DISTRICT":"1","CO_CODE":"DN","COUNTY":"Del Norte","ROUTE":"199","REST_AREA_NAME":"Collier Tunnel","LANDMARK_LOCATION":"3 mi. S. of Oregon State Line","TRAFFIC_DIRECTION":"N & S","RESTROOM":"Yes","WATER":"Yes","PICNICTAB":"Yes","PHONE":"Yes","HANDICAP":"Yes","RV_STATION":"No","VENDING":"No","PET_AREA":"Yes","Manager":"Paul Johnson","Superindendent":"Danny Susavilla"}},{"type":"Feature","id":2,"geometry":{"type":"Point","coordinates":[-123.59473764706937,39.826751011147785]},"properties":{"OBJECTID":2,"CT_NO":"90100029","MAP_LABEL_NAME":"Empire Camp Safety Roadside Rest Area - Nb","CITY":"Laytonville","ZIPCODE":"95454","POSTMILE_P":" ","POSTMILE":82.5,"POSTMILE_S":" ","LATITUDE":39.826746,"LONGITUDE":-123.594724,"DISTRICT":"1","CO_CODE":"MEN","COUNTY":"Mendocino","ROUTE":"101","REST_AREA_NAME":"Empire Camp","LANDMARK_LOCATION":"2.5 mi. S. of Cummings","TRAFFIC_DIRECTION":"N","RESTROOM":"Yes","WATER":"Yes","PICNICTAB":"Yes","PHONE":"Yes","HANDICAP":"Yes","RV_STATION":"No","VENDING":"No","PET_AREA":"Yes","Manager":"Paul Johnson","Superindendent":"Danny Susavilla"}},{"type":"Feature","id":3,"geometry":{"type":"Point","coordinates":[-123.4446785928915,39.58427000611928]},"properties":{"OBJECTID":3,"CT_NO":"90100054","MAP_LABEL_NAME":"Irvine Lodge Safety Roadside Rest Area - Nb","CITY":"Laytonville","ZIPCODE":"95454","POSTMILE_P":" ","POSTMILE":61.82,"POSTMILE_S":" ","LATITUDE":39.584265,"LONGITUDE":-123.444665,"DISTRICT":"1","CO_CODE":"MEN","COUNTY":"Mendocino","ROUTE":"101","REST_AREA_NAME":"Irvine Lodge","LANDMARK_LOCATION":"7.9 mi. S. of Laytonville","TRAFFIC_DIRECTION":"N","RESTROOM":"Yes","WATER":"Yes","PICNICTAB":"Yes","PHONE":"Yes","HANDICAP":"Yes","RV_STATION":"No","VENDING":"No","PET_AREA":"Yes","Manager":"Paul Johnson","Superindendent":"Danny Susavilla"}},{"type":"Feature","id":4,"geometry":{"type":"Point","coordinates":[-123.42531458588212,39.550355005371166]},"properties":{"OBJECTID":4,"CT_NO":"90100071","MAP_LABEL_NAME":"Moss Cove Safety Roadside Rest Area - Sb","CITY":"Laytonville","ZIPCODE":"95454","POSTMILE_P":" ","POSTMILE":58.9,"POSTMILE_S":" ","LATITUDE":39.55035,"LONGITUDE":-123.425301,"DISTRICT":"1","CO_CODE":"MEN","COUNTY":"Mendocino","ROUTE":"101","REST_AREA_NAME":"Moss Cove","LANDMARK_LOCATION":"10.5 mi. S. of Laytonville","TRAFFIC_DIRECTION":"S","RESTROOM":"Yes","WATER":"Yes","PICNICTAB":"Yes","PHONE":"Yes","HANDICAP":"Yes","RV_STATION":"No","VENDING":"No","PET_AREA":"Yes","Manager":"Paul Johnson","Superindendent":"Danny Susavilla"}},{"type":"Feature","id":5,"geometry":{"type":"Point","coordinates":[-123.54715579179626,40.88276608909325]},"properties":{"OBJECTID":5,"CT_NO":"90100085","MAP_LABEL_NAME":"Francis B. Mathews Safety Roadside Rest Area - Eb & Wb","CITY":"Lewiston","ZIPCODE":"96052","POSTMILE_P":" ","POSTMILE":3.6,"POSTMILE_S":" ","LATITUDE":40.882761,"LONGITUDE":-123.547142,"DISTRICT":"2","CO_CODE":"TRI","COUNTY":"Trinity","ROUTE":"299","REST_AREA_NAME":"Francis B.Mathews","LANDMARK_LOCATION":"3 mi. E. of Salyer","TRAFFIC_DIRECTION":"E & W","RESTROOM":"Yes","WATER":"Yes","PICNICTAB":"Yes","PHONE":"No","HANDICAP":"Yes","RV_STATION":"Yes","VENDING":"No","PET_AREA":"Yes","Manager":"Roger Lucas","Superindendent":"Scott Porter"}},{"type":"Feature","id":6,"geometry":{"type":"Point","coordinates":[-124.1501619160756,41.12378605336932]},"properties":{"OBJECTID":6,"CT_NO":"90100095","MAP_LABEL_NAME":"Trinidad Safety Roadside Rest Area - Nb","CITY":"Trinidad","ZIPCODE":"95570","POSTMILE_P":" ","POSTMILE":105.14,"POSTMILE_S":" ","LATITUDE":41.123781,"LONGITUDE":-124.150148,"DISTRICT":"1","CO_CODE":"HUM","COUNTY":"Humboldt","ROUTE":"101","REST_AREA_NAME":"Trinidad","LANDMARK_LOCATION":"0.9 mi. S. Patricks Pt. U.C.","TRAFFIC_DIRECTION":"N","RESTROOM":"Yes","WATER":"Yes","PICNICTAB":"Yes","PHONE":"Yes","HANDICAP":"Yes","RV_STATION":"Yes","VENDING":"No","PET_AREA":"Yes","Manager":"Paul Johnson","Superindendent":"Danny Susavilla"}},{"type":"Feature","id":7,"geometry":{"type":"Point","coordinates":[-124.1507099099585,41.09157205153258]},"properties":{"OBJECTID":7,"CT_NO":"90100096","MAP_LABEL_NAME":"Trinidad Safety Roadside Rest Area - Sb","CITY":"Trinidad","ZIPCODE":"95570","POSTMILE_P":" ","POSTMILE":102.9,"POSTMILE_S":" ","LATITUDE":41.091567,"LONGITUDE":-124.150696,"DISTRICT":"1","CO_CODE":"HUM","COUNTY":"Humboldt","ROUTE":"101","REST_AREA_NAME":"Trinidad","LANDMARK_LOCATION":"3.1 mi. S. of Patricks Pt. U.C.","TRAFFIC_DIRECTION":"S","RESTROOM":"Yes","WATER":"Yes","PICNICTAB":"Yes","PHONE":"Yes","HANDICAP":"Yes","RV_STATION":"No","VENDING":"No","PET_AREA":"Yes","Manager":"Paul Johnson","Superindendent":"Danny Susavilla"}},{"type":"Feature","id":8,"geometry":{"type":"Point","coordinates":[-122.19885945725115,39.94595613464631]},"properties":{"OBJECTID":8,"CT_NO":"90200041","MAP_LABEL_NAME":"Lt. John C. Helmick Safety Roadside Rest Area - Nb","CITY":"Corning","ZIPCODE":"96021","POSTMILE_P":" ","POSTMILE":10.5,"POSTMILE_S":" ","LATITUDE":39.945951,"LONGITUDE":-122.198846,"DISTRICT":"2","CO_CODE":"TEH","COUNTY":"Tehama","ROUTE":"5","REST_AREA_NAME":"LT John C. Helmick","LANDMARK_LOCATION":"1.3 mi. N. of Corning Road","TRAFFIC_DIRECTION":"N","RESTROOM":"Yes","WATER":"Yes","PICNICTAB":"Yes","PHONE":"Yes","HANDICAP":"Yes","RV_STATION":"No","VENDING":"No","PET_AREA":"Yes","Manager":"Roger Lucas","Superindendent":"Scott Porter"}},{"type":"Feature","id":9,"geometry":{"type":"Point","coordinates":[-122.16714370132341,41.64270626291147]},"properties":{"OBJECTID":9,"CT_NO":"90200072","MAP_LABEL_NAME":"Grass Lake Safety Roadside Rest Area - Nb & Sb","CITY":"Weed","ZIPCODE":"96094","POSTMILE_P":" ","POSTMILE":21.8,"POSTMILE_S":" ","LATITUDE":41.642701,"LONGITUDE":-122.16713,"DISTRICT":"2","CO_CODE":"SIS","COUNTY":"Siskiyou","ROUTE":"97","REST_AREA_NAME":"Grass Lake","LANDMARK_LOCATION":"19.8 mi. N. of Weed","TRAFFIC_DIRECTION":"N & S","RESTROOM":"Yes","WATER":"Yes","PICNICTAB":"Yes","PHONE":"Yes","HANDICAP":"Yes","RV_STATION":"No","VENDING":"No","PET_AREA":"Yes","Manager":"Roger Lucas","Superindendent":"Scott Porter"}},{"type":"Feature","id":10,"geometry":{"type":"Point","coordinates":[-122.26073450941782,40.251550152328534]},"properties":{"OBJECTID":10,"CT_NO":"90200086","MAP_LABEL_NAME":"Herbert S. Miles Safety Roadside Rest Area - Nb","CITY":"Red Bluff","ZIPCODE":"96080","POSTMILE_P":" ","POSTMILE":33.2,"POSTMILE_S":" ","LATITUDE":40.251545,"LONGITUDE":-122.260721,"DISTRICT":"2","CO_CODE":"TEH","COUNTY":"Tehama","ROUTE":"5","REST_AREA_NAME":"Herbert S. Miles","LANDMARK_LOCATION":"4.4 mi. N. of Red Bluff","TRAFFIC_DIRECTION":"N","RESTROOM":"Yes","WATER":"Yes","PICNICTAB":"Yes","PHONE":"Yes","HANDICAP":"Yes","RV_STATION":"No","VENDING":"No","PET_AREA":"Yes","Manager":"Roger Lucas","Superindendent":"Scott Porter"}},{"type":"Feature","id":11,"geometry":{"type":"Point","coordinates":[-121.89637654109652,40.86420522977523]},"properties":{"OBJECTID":11,"CT_NO":"90200088","MAP_LABEL_NAME":"Hillcrest Safety Roadside Rest Area - Eb & Wb","CITY":"Montgomery Creek","ZIPCODE":"96055","POSTMILE_P":" ","POSTMILE":60.6,"POSTMILE_S":" ","LATITUDE":40.8642,"LONGITUDE":-121.896363,"DISTRICT":"2","CO_CODE":"SHA","COUNTY":"Shasta","ROUTE":"299","REST_AREA_NAME":"Hillcrest","LANDMARK_LOCATION":"3.9 mi. E. of Montgomery Creek","TRAFFIC_DIRECTION":"E & W","RESTROOM":"Yes","WATER":"Yes","PICNICTAB":"Yes","PHONE":"No","HANDICAP":"Yes","RV_STATION":"No","VENDING":"No","PET_AREA":"Yes","Manager":"Roger Lucas","Superindendent":"Scott Porter"}},{"type":"Feature","id":12,"geometry":{"type":"Point","coordinates":[-120.4651772285173,40.256263299728396]},"properties":{"OBJECTID":12,"CT_NO":"90200091","MAP_LABEL_NAME":"Honey Lake Safety Roadside Rest Area - Nb & Sb","CITY":"Janesville","ZIPCODE":"96114","POSTMILE_P":" ","POSTMILE":49.6,"POSTMILE_S":" ","LATITUDE":40.256258,"LONGITUDE":-120.465164,"DISTRICT":"2","CO_CODE":"LAS","COUNTY":"Lassen","ROUTE":"395","REST_AREA_NAME":"Honey Lake","LANDMARK_LOCATION":"7.7 mi. N. of Milford","TRAFFIC_DIRECTION":"N & S","RESTROOM":"Yes","WATER":"Yes","PICNICTAB":"Yes","PHONE":"Yes","HANDICAP":"Yes","RV_STATION":"No","VENDING":"No","PET_AREA":"Yes","Manager":"Roger Lucas","Superindendent":"Scott Porter"}},{"type":"Feature","id":13,"geometry":{"type":"Point","coordinates":[-120.413421161732,39.823619268267905]},"properties":{"OBJECTID":13,"CT_NO":"90200104","MAP_LABEL_NAME":"L.T. Davis Safety Roadside Rest Area - Eb & Wb","CITY":"Loyalton","ZIPCODE":"96114","POSTMILE_P":" ","POSTMILE":79.2,"POSTMILE_S":" ","LATITUDE":39.823614,"LONGITUDE":-120.413408,"DISTRICT":"2","CO_CODE":"PLU","COUNTY":"Plumas","ROUTE":"70","REST_AREA_NAME":"L.T.Davis","LANDMARK_LOCATION":"3 mi. E. of Portola","TRAFFIC_DIRECTION":"E & W","RESTROOM":"Yes","WATER":"Yes","PICNICTAB":"Yes","PHONE":"Yes","HANDICAP":"Yes","RV_STATION":"No","VENDING":"No","PET_AREA":"Yes","Manager":"Roger Lucas","Superindendent":"Scott Porter"}},{"type":"Feature","id":14,"geometry":{"type":"Point","coordinates":[-121.16253834602512,40.30264524646589]},"properties":{"OBJECTID":14,"CT_NO":"90200106","MAP_LABEL_NAME":"Lake Almanor Safety Roadside Rest Area - Eb & Wb","CITY":"Chester","ZIPCODE":" ","POSTMILE_P":" ","POSTMILE":12.8,"POSTMILE_S":" ","LATITUDE":40.30264,"LONGITUDE":-121.162525,"DISTRICT":"2","CO_CODE":"PLU","COUNTY":"Plumas","ROUTE":"36","REST_AREA_NAME":"Lake Almanor","LANDMARK_LOCATION":"4.3 mi. E. of Chester","TRAFFIC_DIRECTION":"E & W","RESTROOM":"Yes","WATER":"Yes","PICNICTAB":"Yes","PHONE":"No","HANDICAP":"Yes","RV_STATION":"No","VENDING":"No","PET_AREA":"Yes","Manager":"Roger Lucas","Superindendent":"Scott Porter"}},{"type":"Feature","id":15,"geometry":{"type":"Point","coordinates":[-122.39785962642311,40.91746119056417]},"properties":{"OBJECTID":15,"CT_NO":"90200107","MAP_LABEL_NAME":"Lakehead Safety Roadside Rest Area - Sb","CITY":"Shasta Lake","ZIPCODE":"96001","POSTMILE_P":" ","POSTMILE":43.2,"POSTMILE_S":" ","LATITUDE":40.917456,"LONGITUDE":-122.397846,"DISTRICT":"2","CO_CODE":"SHA","COUNTY":"Shasta","ROUTE":"5","REST_AREA_NAME":"Lakehead","LANDMARK_LOCATION":"0.9 mi. N. of Lakehead O.C.","TRAFFIC_DIRECTION":"S","RESTROOM":"Yes","WATER":"Yes","PICNICTAB":"Yes","PHONE":"Yes","HANDICAP":"Yes","RV_STATION":"No","VENDING":"Yes","PET_AREA":"Yes","Manager":"Roger Lucas","Superindendent":"Scott Porter"}},{"type":"Feature","id":16,"geometry":{"type":"Point","coordinates":[-120.83401924178386,39.92330124388334]},"properties":{"OBJECTID":16,"CT_NO":"90200116","MAP_LABEL_NAME":"Massack Safety Roadside Rest Area - Eb & Wb","CITY":"Quincy","ZIPCODE":"95971","POSTMILE_P":" ","POSTMILE":49.8,"POSTMILE_S":" ","LATITUDE":39.923296,"LONGITUDE":-120.834006,"DISTRICT":"2","CO_CODE":"PLU","COUNTY":"Plumas","ROUTE":"70","REST_AREA_NAME":"Massack","LANDMARK_LOCATION":"6.5 mi. E. of Quincy","TRAFFIC_DIRECTION":"E & W","RESTROOM":"Yes","WATER":"Yes","PICNICTAB":"Yes","PHONE":"Yes","HANDICAP":"Yes","RV_STATION":"No","VENDING":"No","PET_AREA":"Yes","Manager":"Roger Lucas","Superindendent":"Scott Porter"}},{"type":"Feature","id":17,"geometry":{"type":"Point","coordinates":[-122.94356967025375,40.66638212534083]},"properties":{"OBJECTID":17,"CT_NO":"90200122","MAP_LABEL_NAME":"Moon Lim Lee Safety Roadside Rest Area - Eb & W B","CITY":"Weaverville","ZIPCODE":"96093","POSTMILE_P":" ","POSTMILE":56.8,"POSTMILE_S":" ","LATITUDE":40.666377,"LONGITUDE":-122.943556,"DISTRICT":"2","CO_CODE":"TRI","COUNTY":"Trinity","ROUTE":"299","REST_AREA_NAME":"Moon Lim Lee","LANDMARK_LOCATION":"5 mi. E. of Weaverville","TRAFFIC_DIRECTION":"E","RESTROOM":"Yes","WATER":"Yes","PICNICTAB":"Yes","PHONE":"Yes","HANDICAP":"Yes","RV_STATION":"No","VENDING":"No","PET_AREA":"Yes","Manager":"Roger Lucas","Superindendent":"Scott Porter"}},{"type":"Feature","id":18,"geometry":{"type":"Point","coordinates":[-122.57218479681075,41.85238124105683]},"properties":{"OBJECTID":18,"CT_NO":"90200144","MAP_LABEL_NAME":"Randolph E. Collier Safety Roadside Rest Area - Nb & Sb","CITY":"Hornbrook","ZIPCODE":"96044","POSTMILE_P":" ","POSTMILE":58.4,"POSTMILE_S":" ","LATITUDE":41.852376,"LONGITUDE":-122.572171,"DISTRICT":"2","CO_CODE":"SIS","COUNTY":"Siskiyou","ROUTE":"5","REST_AREA_NAME":"Randolph E. Collier","LANDMARK_LOCATION":"2.5 mi. N. of Rte. 96","TRAFFIC_DIRECTION":"N & S","RESTROOM":"Yes","WATER":"Yes","PICNICTAB":"Yes","PHONE":"Yes","HANDICAP":"Yes","RV_STATION":"No","VENDING":"No","PET_AREA":"Yes","Manager":"Roger Lucas","Superindendent":"Scott Porter"}},{"type":"Feature","id":19,"geometry":{"type":"Point","coordinates":[-120.26074125025485,40.646744349332494]},"properties":{"OBJECTID":19,"CT_NO":"90200154","MAP_LABEL_NAME":"Secret Valley Safety Roadside Rest Area - Nb & Sb","CITY":"Ravendale","ZIPCODE":" ","POSTMILE_P":" ","POSTMILE":96.5,"POSTMILE_S":" ","LATITUDE":40.646739,"LONGITUDE":-120.260728,"DISTRICT":"2","CO_CODE":"LAS","COUNTY":"Lassen","ROUTE":"395","REST_AREA_NAME":"Secret Valley","LANDMARK_LOCATION":"12 mi. S. of Ravendale","TRAFFIC_DIRECTION":"N & S","RESTROOM":"Yes","WATER":"Yes","PICNICTAB":"Yes","PHONE":"No","HANDICAP":"Yes","RV_STATION":"No","VENDING":"No","PET_AREA":"Yes","Manager":"Roger Lucas","Superindendent":"Scott Porter"}},{"type":"Feature","id":20,"geometry":{"type":"Point","coordinates":[-121.832580479424,40.50614620736687]},"properties":{"OBJECTID":20,"CT_NO":"90200160","MAP_LABEL_NAME":"Shingletown Safety Roadside Rest Area - Eb & Wb","CITY":"Shingletown","ZIPCODE":" ","POSTMILE_P":" ","POSTMILE":34.9,"POSTMILE_S":" ","LATITUDE":40.506141,"LONGITUDE":-121.832567,"DISTRICT":"2","CO_CODE":"SHA","COUNTY":"Shasta","ROUTE":"44","REST_AREA_NAME":"Shingletown","LANDMARK_LOCATION":"3.1 mi. E. of Shingletown","TRAFFIC_DIRECTION":"E & W","RESTROOM":"Yes","WATER":"Yes","PICNICTAB":"Yes","PHONE":"No","HANDICAP":"Yes","RV_STATION":"No","VENDING":"No","PET_AREA":"Yes","Manager":"Roger Lucas","Superindendent":"Scott Porter"}},{"type":"Feature","id":21,"geometry":{"type":"Point","coordinates":[-122.45477671933156,41.47748122603269]},"properties":{"OBJECTID":21,"CT_NO":"90200199","MAP_LABEL_NAME":"Weed Airport Safety Roadside Rest Area - Nb","CITY":"Weed","ZIPCODE":"96094","POSTMILE_P":" ","POSTMILE":25.8,"POSTMILE_S":" ","LATITUDE":41.477476,"LONGITUDE":-122.454763,"DISTRICT":"2","CO_CODE":"SIS","COUNTY":"Siskiyou","ROUTE":"5","REST_AREA_NAME":"Weed Airport","LANDMARK_LOCATION":"6 mi. N. of Weed","TRAFFIC_DIRECTION":"N","RESTROOM":"Yes","WATER":"Yes","PICNICTAB":"Yes","PHONE":"Yes","HANDICAP":"Yes","RV_STATION":"No","VENDING":"No","PET_AREA":"Yes","Manager":"Roger Lucas","Superindendent":"Scott Porter"}},{"type":"Feature","id":22,"geometry":{"type":"Point","coordinates":[-120.33984608389402,39.34085523380519]},"properties":{"OBJECTID":22,"CT_NO":"90300040","MAP_LABEL_NAME":"Donner Summit Safety Roadside Rest Area - Eb","CITY":"Soda Springs","ZIPCODE":"95728","POSTMILE_P":" ","POSTMILE":5.52,"POSTMILE_S":" ","LATITUDE":39.34085,"LONGITUDE":-120.339833,"DISTRICT":"3","CO_CODE":"NEV","COUNTY":"Nevada","ROUTE":"80","REST_AREA_NAME":"Donner Summit","LANDMARK_LOCATION":"On Donner Pass","TRAFFIC_DIRECTION":"E","RESTROOM":"Yes","WATER":"Yes","PICNICTAB":"Yes","PHONE":"Yes","HANDICAP":"Yes","RV_STATION":"No","VENDING":"No","PET_AREA":"Yes","Manager":"Steven Hardie","Superindendent":null}},{"type":"Feature","id":23,"geometry":{"type":"Point","coordinates":[-120.34030208580023,39.34276723296793]},"properties":{"OBJECTID":23,"CT_NO":"90300041","MAP_LABEL_NAME":"Donner Summit Safety Roadside Rest Area - Wb","CITY":"Soda Springs","ZIPCODE":"95728","POSTMILE_P":" ","POSTMILE":5.84,"POSTMILE_S":" ","LATITUDE":39.342762,"LONGITUDE":-120.340289,"DISTRICT":"3","CO_CODE":"NEV","COUNTY":"Nevada","ROUTE":"80","REST_AREA_NAME":"Donner Summit","LANDMARK_LOCATION":"On Donner Pass","TRAFFIC_DIRECTION":"W","RESTROOM":"Yes","WATER":"Yes","PICNICTAB":"Yes","PHONE":"Yes","HANDICAP":"Yes","RV_STATION":"No","VENDING":"No","PET_AREA":"Yes","Manager":"Steven Hardie","Superindendent":null}},{"type":"Feature","id":24,"geometry":{"type":"Point","coordinates":[-121.97716128450409,38.892011068629905]},"properties":{"OBJECTID":24,"CT_NO":"90300046","MAP_LABEL_NAME":"Dunnigan Safety Roadside Rest Area - Nb","CITY":"Dunnigan","ZIPCODE":"95937","POSTMILE_P":" ","POSTMILE":26.17,"POSTMILE_S":" ","LATITUDE":38.892006,"LONGITUDE":-121.977148,"DISTRICT":"3","CO_CODE":"YOL","COUNTY":"Yolo","ROUTE":"5","REST_AREA_NAME":"Dunnigan","LANDMARK_LOCATION":"0.5 mi. N. of Dunnigan","TRAFFIC_DIRECTION":"N","RESTROOM":"Yes","WATER":"Yes","PICNICTAB":"Yes","PHONE":"Yes","HANDICAP":"Yes","RV_STATION":"No","VENDING":"No","PET_AREA":"Yes","Manager":"Steven Hardie","Superindendent":null}},{"type":"Feature","id":25,"geometry":{"type":"Point","coordinates":[-121.97965028349272,38.89219206817163]},"properties":{"OBJECTID":25,"CT_NO":"90300047","MAP_LABEL_NAME":"Dunnigan Safety Roadside Rest Area - Sb","CITY":"Dunnigan","ZIPCODE":"95937","POSTMILE_P":" ","POSTMILE":26.55,"POSTMILE_S":" ","LATITUDE":38.892187,"LONGITUDE":-121.979637,"DISTRICT":"3","CO_CODE":"YOL","COUNTY":"Yolo","ROUTE":"5","REST_AREA_NAME":"Dunnigan","LANDMARK_LOCATION":"0.5 mi. N. of Dunnigan","TRAFFIC_DIRECTION":"S","RESTROOM":"Yes","WATER":"Yes","PICNICTAB":"Yes","PHONE":"Yes","HANDICAP":"Yes","RV_STATION":"No","VENDING":"No","PET_AREA":"Yes","Manager":"Steven Hardie","Superindendent":null}},{"type":"Feature","id":26,"geometry":{"type":"Point","coordinates":[-121.61213620030334,38.671809078710055]},"properties":{"OBJECTID":26,"CT_NO":"90300057","MAP_LABEL_NAME":"Elkhorn Safety Roadside Rest Area - Sb\nAka: Vietnam Memorial","CITY":"Sacramento","ZIPCODE":"95815","POSTMILE_P":" ","POSTMILE":33.8,"POSTMILE_S":" ","LATITUDE":38.671804,"LONGITUDE":-121.612123,"DISTRICT":"3","CO_CODE":"SAC","COUNTY":"Sacramento","ROUTE":"5","REST_AREA_NAME":"Elkhorn","LANDMARK_LOCATION":"6.1 miles south of Woodland","TRAFFIC_DIRECTION":"S","RESTROOM":"Yes","WATER":"Yes","PICNICTAB":"Yes","PHONE":"Yes","HANDICAP":"Yes","RV_STATION":"No","VENDING":"No","PET_AREA":"Yes","Manager":"Steven Hardie","Superindendent":null}},{"type":"Feature","id":27,"geometry":{"type":"Point","coordinates":[-120.85021014588482,39.180485179931274]},"properties":{"OBJECTID":27,"CT_NO":"90300065","MAP_LABEL_NAME":"Gold Run Safety Roadside Rest Area - Eb","CITY":"Dutch Flat","ZIPCODE":"95714","POSTMILE_P":" ","POSTMILE":41.7,"POSTMILE_S":" ","LATITUDE":39.18048,"LONGITUDE":-120.850197,"DISTRICT":"3","CO_CODE":"PLA","COUNTY":"Placer","ROUTE":"80","REST_AREA_NAME":"Gold Run","LANDMARK_LOCATION":"Between Sawmill and Gold Run O.C.","TRAFFIC_DIRECTION":"E","RESTROOM":"Yes","WATER":"Yes","PICNICTAB":"Yes","PHONE":"Yes","HANDICAP":"Yes","RV_STATION":"No","VENDING":"Yes","PET_AREA":"Yes","Manager":"Steven Hardie","Superindendent":null}},{"type":"Feature","id":28,"geometry":{"type":"Point","coordinates":[-120.85497514612169,39.179263180003225]},"properties":{"OBJECTID":28,"CT_NO":"90300066","MAP_LABEL_NAME":"Gold Run Safety Roadside Rest Area - Wb","CITY":"Dutch Flat","ZIPCODE":"95714","POSTMILE_P":" ","POSTMILE":41.8,"POSTMILE_S":" ","LATITUDE":39.179258,"LONGITUDE":-120.854962,"DISTRICT":"3","CO_CODE":"PLA","COUNTY":"Placer","ROUTE":"80","REST_AREA_NAME":"Gold Run","LANDMARK_LOCATION":"Between Sawmill and Gold Run O.C.","TRAFFIC_DIRECTION":"W","RESTROOM":"Yes","WATER":"Yes","PICNICTAB":"Yes","PHONE":"Yes","HANDICAP":"Yes","RV_STATION":"No","VENDING":"Yes","PET_AREA":"Yes","Manager":"Steven Hardie","Superindendent":null}},{"type":"Feature","id":29,"geometry":{"type":"Point","coordinates":[-122.18024235897633,39.24078108059575]},"properties":{"OBJECTID":29,"CT_NO":"90300087","MAP_LABEL_NAME":"Maxwell Safety Roadside Rest Area - Nb","CITY":"Maxwell","ZIPCODE":"95955","POSTMILE_P":" ","POSTMILE":24.1,"POSTMILE_S":" ","LATITUDE":39.240776,"LONGITUDE":-122.180229,"DISTRICT":"3","CO_CODE":"COL","COUNTY":"Colusa","ROUTE":"5","REST_AREA_NAME":"Maxwell","LANDMARK_LOCATION":"2 mi. S. of Maxwell","TRAFFIC_DIRECTION":"N","RESTROOM":"Yes","WATER":"Yes","PICNICTAB":"Yes","PHONE":"Yes","HANDICAP":"Yes","RV_STATION":"No","VENDING":"No","PET_AREA":"Yes","Manager":"Steven Hardie","Superindendent":null}},{"type":"Feature","id":30,"geometry":{"type":"Point","coordinates":[-122.18363436065826,39.24169708058334]},"properties":{"OBJECTID":30,"CT_NO":"90300088","MAP_LABEL_NAME":"Maxwell Safety Roadside Rest Area - Sb","CITY":"Maxwell","ZIPCODE":"95955","POSTMILE_P":" ","POSTMILE":24.5,"POSTMILE_S":" ","LATITUDE":39.241692,"LONGITUDE":-122.183621,"DISTRICT":"3","CO_CODE":"COL","COUNTY":"Colusa","ROUTE":"5","REST_AREA_NAME":"Maxwell","LANDMARK_LOCATION":"2 mi. S. of Maxwell","TRAFFIC_DIRECTION":"S","RESTROOM":"Yes","WATER":"Yes","PICNICTAB":"Yes","PHONE":"Yes","HANDICAP":"Yes","RV_STATION":"No","VENDING":"No","PET_AREA":"Yes","Manager":"Steven Hardie","Superindendent":null}},{"type":"Feature","id":31,"geometry":{"type":"Point","coordinates":[-122.20837941006846,39.59229410543651]},"properties":{"OBJECTID":31,"CT_NO":"90300155","MAP_LABEL_NAME":"Willows Safety Roadside Rest Area - Nb","CITY":"Willows","ZIPCODE":"95988","POSTMILE_P":" ","POSTMILE":14.4,"POSTMILE_S":" ","LATITUDE":39.592289,"LONGITUDE":-122.208366,"DISTRICT":"3","CO_CODE":"GLE","COUNTY":"Glenn","ROUTE":"5","REST_AREA_NAME":"Willows","LANDMARK_LOCATION":"2 mi. S. of Artois","TRAFFIC_DIRECTION":"N","RESTROOM":"Yes","WATER":"Yes","PICNICTAB":"Yes","PHONE":"Yes","HANDICAP":"Yes","RV_STATION":"Yes","VENDING":"No","PET_AREA":"Yes","Manager":"Steven Hardie","Superindendent":null}},{"type":"Feature","id":32,"geometry":{"type":"Point","coordinates":[-122.2103534102946,39.59275210568377]},"properties":{"OBJECTID":32,"CT_NO":"90300156","MAP_LABEL_NAME":"Willows Safety Roadside Rest Area - Sb","CITY":"Willows","ZIPCODE":"95988","POSTMILE_P":" ","POSTMILE":14.7,"POSTMILE_S":" ","LATITUDE":39.592747,"LONGITUDE":-122.21034,"DISTRICT":"3","CO_CODE":"GLE","COUNTY":"Glenn","ROUTE":"5","REST_AREA_NAME":"Willows","LANDMARK_LOCATION":"2 mi. S. of Artois","TRAFFIC_DIRECTION":"S","RESTROOM":"Yes","WATER":"Yes","PICNICTAB":"Yes","PHONE":"Yes","HANDICAP":"Yes","RV_STATION":"Yes","VENDING":"No","PET_AREA":"Yes","Manager":"Steven Hardie","Superindendent":null}},{"type":"Feature","id":33,"geometry":{"type":"Point","coordinates":[-122.36427718031813,37.53922992916701]},"properties":{"OBJECTID":33,"CT_NO":"90400035","MAP_LABEL_NAME":"Crystal Springs Safety Roadside Rest Area - Nb","CITY":"Burlingame","ZIPCODE":"94010","POSTMILE_P":" ","POSTMILE":13.1,"POSTMILE_S":" ","LATITUDE":37.539225,"LONGITUDE":-122.364264,"DISTRICT":"4","CO_CODE":"SM","COUNTY":"San Mateo","ROUTE":"280","REST_AREA_NAME":"Crystal Springs","LANDMARK_LOCATION":"Near San Francisco Reservoir","TRAFFIC_DIRECTION":"N","RESTROOM":"Yes","WATER":"Yes","PICNICTAB":"Yes","PHONE":"Yes","HANDICAP":"Yes","RV_STATION":"No","VENDING":"Yes","PET_AREA":"Yes","Manager":null,"Superindendent":null}},{"type":"Feature","id":34,"geometry":{"type":"Point","coordinates":[-122.48029923097577,37.8328069442785]},"properties":{"OBJECTID":34,"CT_NO":"90400065","MAP_LABEL_NAME":"H. Dana Bowers Safety Roadside Rest Area & Vista Point - Nb","CITY":"Sausalito","ZIPCODE":"94965","POSTMILE_P":" ","POSTMILE":0.1,"POSTMILE_S":" ","LATITUDE":37.832802,"LONGITUDE":-122.480286,"DISTRICT":"4","CO_CODE":"MRN","COUNTY":"Marin","ROUTE":"101","REST_AREA_NAME":"H. Dana Bower","LANDMARK_LOCATION":"North end of Golden Gate Bridge","TRAFFIC_DIRECTION":"N","RESTROOM":"Yes","WATER":"Yes","PICNICTAB":"Yes","PHONE":"Yes","HANDICAP":"Yes","RV_STATION":"No","VENDING":"No","PET_AREA":"Yes","Manager":null,"Superindendent":null}},{"type":"Feature","id":35,"geometry":{"type":"Point","coordinates":[-122.21750222937676,38.15127598934503]},"properties":{"OBJECTID":35,"CT_NO":"91000027","MAP_LABEL_NAME":"Hunter Hill Safety Roadside Rest Area - Wb","CITY":"Vallejo","ZIPCODE":"94590","POSTMILE_P":" ","POSTMILE":6.56,"POSTMILE_S":" ","LATITUDE":38.151271,"LONGITUDE":-122.217489,"DISTRICT":"4","CO_CODE":"SOL","COUNTY":"Solano","ROUTE":"80","REST_AREA_NAME":"Hunter Hill","LANDMARK_LOCATION":"7 mi. E. of Vallejo","TRAFFIC_DIRECTION":"W","RESTROOM":"Yes","WATER":"Yes","PICNICTAB":"Yes","PHONE":"Yes","HANDICAP":"Yes","RV_STATION":"No","VENDING":"Yes","PET_AREA":"Yes","Manager":null,"Superindendent":null}},{"type":"Feature","id":36,"geometry":{"type":"Point","coordinates":[-120.75813475435223,35.83128588548039]},"properties":{"OBJECTID":36,"CT_NO":"90500011","MAP_LABEL_NAME":"Camp Roberts Safety Roadside Rest Area - Nb","CITY":"Bradley","ZIPCODE":"93426","POSTMILE_P":" ","POSTMILE":3.1,"POSTMILE_S":" ","LATITUDE":35.831281,"LONGITUDE":-120.758122,"DISTRICT":"5","CO_CODE":"MON","COUNTY":"Monterey","ROUTE":"101","REST_AREA_NAME":"Camp Roberts","LANDMARK_LOCATION":"8.5 mi. N. of San Miguel","TRAFFIC_DIRECTION":"N","RESTROOM":"Yes","WATER":"Yes","PICNICTAB":"Yes","PHONE":"Yes","HANDICAP":"Yes","RV_STATION":"No","VENDING":"Yes","PET_AREA":"Yes","Manager":"Lee Chaves","Superindendent":null}},{"type":"Feature","id":37,"geometry":{"type":"Point","coordinates":[-120.76972075776283,35.85021188707742]},"properties":{"OBJECTID":37,"CT_NO":"90500012","MAP_LABEL_NAME":"Camp Roberts Safety Roadside Rest Area - Sb","CITY":"Bradley","ZIPCODE":"93426","POSTMILE_P":" ","POSTMILE":5.1,"POSTMILE_S":" ","LATITUDE":35.850207,"LONGITUDE":-120.769708,"DISTRICT":"5","CO_CODE":"MON","COUNTY":"Monterey","ROUTE":"101","REST_AREA_NAME":"Camp Roberts","LANDMARK_LOCATION":"8.5 mi. N. of San Miguel","TRAFFIC_DIRECTION":"S","RESTROOM":"Yes","WATER":"Yes","PICNICTAB":"Yes","PHONE":"Yes","HANDICAP":"Yes","RV_STATION":"No","VENDING":"Yes","PET_AREA":"Yes","Manager":"Lee Chaves","Superindendent":null}},{"type":"Feature","id":38,"geometry":{"type":"Point","coordinates":[-120.22872054683086,34.48499578806628]},"properties":{"OBJECTID":38,"CT_NO":"90500017","MAP_LABEL_NAME":"Gaviota Safety Roadside Rest Area - Nb","CITY":"Goleta","ZIPCODE":"93117","POSTMILE_P":" ","POSTMILE":46.9,"POSTMILE_S":" ","LATITUDE":34.484991,"LONGITUDE":-120.228708,"DISTRICT":"5","CO_CODE":"SB","COUNTY":"Santa Barbara","ROUTE":"101","REST_AREA_NAME":"Gaviota","LANDMARK_LOCATION":"At S. end of Gaviota Tunnel","TRAFFIC_DIRECTION":"N","RESTROOM":"Yes","WATER":"Yes","PICNICTAB":"Yes","PHONE":"Yes","HANDICAP":"Yes","RV_STATION":"No","VENDING":"No","PET_AREA":"Yes","Manager":"Lee Chaves","Superindendent":null}},{"type":"Feature","id":39,"geometry":{"type":"Point","coordinates":[-120.230770547225,34.483864786513706]},"properties":{"OBJECTID":39,"CT_NO":"90500018","MAP_LABEL_NAME":"Gaviota Safety Roadside Rest Area - Sb","CITY":"Goleta","ZIPCODE":"93117","POSTMILE_P":" ","POSTMILE":46.3,"POSTMILE_S":" ","LATITUDE":34.48386,"LONGITUDE":-120.230758,"DISTRICT":"5","CO_CODE":"SB","COUNTY":"Santa Barbara","ROUTE":"101","REST_AREA_NAME":"Gaviota","LANDMARK_LOCATION":"At S. end of Gaviota Tunnel","TRAFFIC_DIRECTION":"S","RESTROOM":"Yes","WATER":"Yes","PICNICTAB":"Yes","PHONE":"Yes","HANDICAP":"Yes","RV_STATION":"No","VENDING":"No","PET_AREA":"Yes","Manager":null,"Superindendent":null}},{"type":"Feature","id":40,"geometry":{"type":"Point","coordinates":[-120.34671367459671,35.675237897416714]},"properties":{"OBJECTID":40,"CT_NO":"90500047","MAP_LABEL_NAME":"Shandon Safety Roadside Rest Area - Eb & Wb","CITY":"Paso Robles","ZIPCODE":"93446","POSTMILE_P":" ","POSTMILE":49.6,"POSTMILE_S":" ","LATITUDE":35.675233,"LONGITUDE":-120.346701,"DISTRICT":"5","CO_CODE":"SLO","COUNTY":"San Luis Obispo","ROUTE":"46","REST_AREA_NAME":"Shandon","LANDMARK_LOCATION":"0.9 mi. E. of Route 41 (West)","TRAFFIC_DIRECTION":"E & W","RESTROOM":"Yes","WATER":"Yes","PICNICTAB":"Yes","PHONE":"No","HANDICAP":"Yes","RV_STATION":"No","VENDING":"Yes","PET_AREA":"Yes","Manager":"Lee Chaves","Superindendent":null}},{"type":"Feature","id":41,"geometry":{"type":"Point","coordinates":[-117.71860317916426,35.005835991628466]},"properties":{"OBJECTID":41,"CT_NO":"90600018","MAP_LABEL_NAME":"Boron Safety Roadside Rest Area - Eb","CITY":"Boron","ZIPCODE":"93516","POSTMILE_P":"R","POSTMILE":139,"POSTMILE_S":" ","LATITUDE":35.005831,"LONGITUDE":-117.718591,"DISTRICT":"6","CO_CODE":"KER","COUNTY":"Kern","ROUTE":"58","REST_AREA_NAME":"Boron","LANDMARK_LOCATION":"3.9 mi. W. of Boron","TRAFFIC_DIRECTION":"W","RESTROOM":"Yes","WATER":"Yes","PICNICTAB":"Yes","PHONE":"Yes","HANDICAP":"Yes","RV_STATION":"No","VENDING":"Yes","PET_AREA":"Yes","Manager":null,"Superindendent":null}},{"type":"Feature","id":42,"geometry":{"type":"Point","coordinates":[-117.71927117988426,35.00787499181787]},"properties":{"OBJECTID":42,"CT_NO":"90600019","MAP_LABEL_NAME":"Boron Safety Roadside Rest Area - Wb","CITY":"Boron","ZIPCODE":"93516","POSTMILE_P":"R","POSTMILE":139,"POSTMILE_S":" ","LATITUDE":35.00787,"LONGITUDE":-117.719259,"DISTRICT":"6","CO_CODE":"KER","COUNTY":"Kern","ROUTE":"58","REST_AREA_NAME":"Boron","LANDMARK_LOCATION":"3.9 mi. W. of Boron","TRAFFIC_DIRECTION":"W","RESTROOM":"Yes","WATER":"Yes","PICNICTAB":"Yes","PHONE":"Yes","HANDICAP":"Yes","RV_STATION":"No","VENDING":"Yes","PET_AREA":"Yes","Manager":null,"Superindendent":null}},{"type":"Feature","id":43,"geometry":{"type":"Point","coordinates":[-119.42194350122992,35.418689931088224]},"properties":{"OBJECTID":43,"CT_NO":"90600020","MAP_LABEL_NAME":"Buttonwillow Safety Roadside Rest Area - Nb","CITY":"Buttonwillow","ZIPCODE":"93206","POSTMILE_P":" ","POSTMILE":54.1,"POSTMILE_S":" ","LATITUDE":35.418685,"LONGITUDE":-119.421931,"DISTRICT":"6","CO_CODE":"KER","COUNTY":"Kern","ROUTE":"5","REST_AREA_NAME":"Buttonwillow","LANDMARK_LOCATION":"2 mi. N. of Rte. 58 Interchange","TRAFFIC_DIRECTION":"N","RESTROOM":"Yes","WATER":"Yes","PICNICTAB":"Yes","PHONE":"Yes","HANDICAP":"Yes","RV_STATION":"No","VENDING":"Yes","PET_AREA":"Yes","Manager":null,"Superindendent":null}},{"type":"Feature","id":44,"geometry":{"type":"Point","coordinates":[-119.42453750159716,35.417052929787786]},"properties":{"OBJECTID":44,"CT_NO":"90600021","MAP_LABEL_NAME":"Buttonwillow Safety Roadside Rest Area - Sb","CITY":"Buttonwillow","ZIPCODE":"93206","POSTMILE_P":" ","POSTMILE":54.1,"POSTMILE_S":" ","LATITUDE":35.417048,"LONGITUDE":-119.424525,"DISTRICT":"6","CO_CODE":"KER","COUNTY":"Kern","ROUTE":"5","REST_AREA_NAME":"Buttonwillow","LANDMARK_LOCATION":"2 mi. N. of Rte. 58 Interchange","TRAFFIC_DIRECTION":"S","RESTROOM":"Yes","WATER":"Yes","PICNICTAB":"Yes","PHONE":"Yes","HANDICAP":"Yes","RV_STATION":"No","VENDING":"Yes","PET_AREA":"Yes","Manager":null,"Superindendent":null}},{"type":"Feature","id":45,"geometry":{"type":"Point","coordinates":[-120.1131686770879,36.08968095245523]},"properties":{"OBJECTID":45,"CT_NO":"90600025","MAP_LABEL_NAME":"Coalinga - Avenal Safety Roadside Rest Area - Nb","CITY":"Avenal","ZIPCODE":"93204","POSTMILE_P":" ","POSTMILE":1.3,"POSTMILE_S":" ","LATITUDE":36.089676,"LONGITUDE":-120.113156,"DISTRICT":"6","CO_CODE":"FRE","COUNTY":"Fresno","ROUTE":"5","REST_AREA_NAME":"Coalinga - Avenal","LANDMARK_LOCATION":"1.2 mi. N. of Lassen Ave.","TRAFFIC_DIRECTION":"N","RESTROOM":"Yes","WATER":"Yes","PICNICTAB":"Yes","PHONE":"Yes","HANDICAP":"Yes","RV_STATION":"No","VENDING":"Yes","PET_AREA":"Yes","Manager":null,"Superindendent":null}},{"type":"Feature","id":46,"geometry":{"type":"Point","coordinates":[-120.11659467820667,36.089550951525375]},"properties":{"OBJECTID":46,"CT_NO":"90600026","MAP_LABEL_NAME":"Coalinga - Avenal Safety Roadside Rest Area - Sb","CITY":"Avenal","ZIPCODE":"93204","POSTMILE_P":" ","POSTMILE":1.4,"POSTMILE_S":" ","LATITUDE":36.089546,"LONGITUDE":-120.116582,"DISTRICT":"6","CO_CODE":"FRE","COUNTY":"Fresno","ROUTE":"5","REST_AREA_NAME":"Coalinga - Avenal","LANDMARK_LOCATION":"1.2 mi. N. of Lassen Avenue","TRAFFIC_DIRECTION":"S","RESTROOM":"Yes","WATER":"Yes","PICNICTAB":"Yes","PHONE":"Yes","HANDICAP":"Yes","RV_STATION":"No","VENDING":"Yes","PET_AREA":"Yes","Manager":null,"Superindendent":null}},{"type":"Feature","id":47,"geometry":{"type":"Point","coordinates":[-118.87002935697555,34.82569790302945]},"properties":{"OBJECTID":47,"CT_NO":"90600067","MAP_LABEL_NAME":"Tejon Pass Safety Roadside Rest Area - Nb","CITY":"Lebec","ZIPCODE":"93243","POSTMILE_P":" ","POSTMILE":0.25,"POSTMILE_S":" ","LATITUDE":34.825693,"LONGITUDE":-118.870017,"DISTRICT":"6","CO_CODE":"KER","COUNTY":"Kern","ROUTE":"5","REST_AREA_NAME":"Tejon Pass","LANDMARK_LOCATION":"3.5 mi. N. of Gorman","TRAFFIC_DIRECTION":"N","RESTROOM":"Yes","WATER":"Yes","PICNICTAB":"Yes","PHONE":"Yes","HANDICAP":"Yes","RV_STATION":"Yes","VENDING":"Yes","PET_AREA":"Yes","Manager":null,"Superindendent":null}},{"type":"Feature","id":48,"geometry":{"type":"Point","coordinates":[-118.87231035824666,34.828577902962046]},"properties":{"OBJECTID":48,"CT_NO":"90600068","MAP_LABEL_NAME":"Tejon Pass Safety Roadside Rest Area - Sb","CITY":"Lebec","ZIPCODE":"93243","POSTMILE_P":" ","POSTMILE":0.25,"POSTMILE_S":" ","LATITUDE":34.828573,"LONGITUDE":-118.872298,"DISTRICT":"6","CO_CODE":"KER","COUNTY":"Kern","ROUTE":"5","REST_AREA_NAME":"Tejon Pass","LANDMARK_LOCATION":"3.5 mi. N. of Gorman","TRAFFIC_DIRECTION":"S","RESTROOM":"Yes","WATER":"Yes","PICNICTAB":"Yes","PHONE":"Yes","HANDICAP":"Yes","RV_STATION":"Yes","VENDING":"Yes","PET_AREA":"Yes","Manager":null,"Superindendent":null}},{"type":"Feature","id":49,"geometry":{"type":"Point","coordinates":[-119.3223385522584,36.10775100639163]},"properties":{"OBJECTID":49,"CT_NO":"90600069","MAP_LABEL_NAME":"Philip S. Raine Safety Roadside Rest Area - Nb","CITY":"Tulare","ZIPCODE":"93274","POSTMILE_P":" ","POSTMILE":22.3,"POSTMILE_S":" ","LATITUDE":36.107746,"LONGITUDE":-119.322326,"DISTRICT":"6","CO_CODE":"TUL","COUNTY":"Tulare","ROUTE":"99","REST_AREA_NAME":"Phillip S. Raine","LANDMARK_LOCATION":"2.5 mi. N. of Tipton","TRAFFIC_DIRECTION":"N","RESTROOM":"Yes","WATER":"Yes","PICNICTAB":"Yes","PHONE":"Yes","HANDICAP":"Yes","RV_STATION":"Yes","VENDING":"Yes","PET_AREA":"Yes","Manager":null,"Superindendent":null}},{"type":"Feature","id":50,"geometry":{"type":"Point","coordinates":[-119.32474355158145,36.10840100713019]},"properties":{"OBJECTID":50,"CT_NO":"90600070","MAP_LABEL_NAME":"Philip S. Raine Safety Roadside Rest Area - Sb","CITY":"Tulare","ZIPCODE":"93274","POSTMILE_P":" ","POSTMILE":22.3,"POSTMILE_S":" ","LATITUDE":36.108396,"LONGITUDE":-119.324731,"DISTRICT":"6","CO_CODE":"TUL","COUNTY":"Tulare","ROUTE":"99","REST_AREA_NAME":"Phillip S. Raine","LANDMARK_LOCATION":"2.5 mi. N. of Tipton","TRAFFIC_DIRECTION":"S","RESTROOM":"Yes","WATER":"Yes","PICNICTAB":"Yes","PHONE":"Yes","HANDICAP":"Yes","RV_STATION":"Yes","VENDING":"Yes","PET_AREA":"Yes","Manager":null,"Superindendent":null}},{"type":"Feature","id":51,"geometry":{"type":"Point","coordinates":[-117.01934396997012,33.95815891409622]},"properties":{"OBJECTID":51,"CT_NO":"90800044","MAP_LABEL_NAME":"Brookside Safety Roadside Rest Area - Wb","CITY":"Banning","ZIPCODE":"92220","POSTMILE_P":" ","POSTMILE":4.2,"POSTMILE_S":" ","LATITUDE":33.958154,"LONGITUDE":-117.019332,"DISTRICT":"8","CO_CODE":"RIV","COUNTY":"Riverside","ROUTE":"10","REST_AREA_NAME":"Brookside","LANDMARK_LOCATION":"3 mi. W. of Beaumont","TRAFFIC_DIRECTION":"W","RESTROOM":"Yes","WATER":"Yes","PICNICTAB":"Yes","PHONE":"Yes","HANDICAP":"Yes","RV_STATION":"No","VENDING":"No","PET_AREA":"Yes","Manager":null,"Superindendent":null}},{"type":"Feature","id":52,"geometry":{"type":"Point","coordinates":[-115.96534776262229,33.677793938454975]},"properties":{"OBJECTID":52,"CT_NO":"90800046","MAP_LABEL_NAME":"Cactus City Safety Roadside Rest Area - Eb","CITY":" ","ZIPCODE":" ","POSTMILE_P":" ","POSTMILE":72,"POSTMILE_S":" ","LATITUDE":33.677789,"LONGITUDE":-115.965336,"DISTRICT":"8","CO_CODE":"RIV","COUNTY":"Riverside","ROUTE":"10","REST_AREA_NAME":"Cactus City","LANDMARK_LOCATION":"15 mi. E. of Indio","TRAFFIC_DIRECTION":"W","RESTROOM":"Yes","WATER":"Yes","PICNICTAB":"Yes","PHONE":"No","HANDICAP":"Yes","RV_STATION":"No","VENDING":"No","PET_AREA":"Yes","Manager":null,"Superindendent":null}},{"type":"Feature","id":53,"geometry":{"type":"Point","coordinates":[-115.96234276235131,33.67874694009803]},"properties":{"OBJECTID":53,"CT_NO":"90800047","MAP_LABEL_NAME":"Cactus City Safety Roadside Rest Area - Wb","CITY":" ","ZIPCODE":" ","POSTMILE_P":" ","POSTMILE":72,"POSTMILE_S":" ","LATITUDE":33.678742,"LONGITUDE":-115.962331,"DISTRICT":"8","CO_CODE":"RIV","COUNTY":"Riverside","ROUTE":"10","REST_AREA_NAME":"Cactus City","LANDMARK_LOCATION":"15 mi. E. of Indio","TRAFFIC_DIRECTION":"W","RESTROOM":"Yes","WATER":"Yes","PICNICTAB":"Yes","PHONE":"No","HANDICAP":"Yes","RV_STATION":"No","VENDING":"No","PET_AREA":"Yes","Manager":null,"Superindendent":null}},{"type":"Feature","id":54,"geometry":{"type":"Point","coordinates":[-116.4701749649346,35.03150307013728]},"properties":{"OBJECTID":54,"CT_NO":"90800056","MAP_LABEL_NAME":"Clyde V. Kane Safety Roadside Rest Area - Nb","CITY":"Newberry Springs","ZIPCODE":"92365","POSTMILE_P":" ","POSTMILE":107.4,"POSTMILE_S":" ","LATITUDE":35.031498,"LONGITUDE":-116.470163,"DISTRICT":"8","CO_CODE":"SBD","COUNTY":"San Bernardino","ROUTE":"15","REST_AREA_NAME":"Clyde V. Kane","LANDMARK_LOCATION":"30 mi. E. of Barstow","TRAFFIC_DIRECTION":"N","RESTROOM":"Yes","WATER":"Yes","PICNICTAB":"Yes","PHONE":"Yes","HANDICAP":"Yes","RV_STATION":"No","VENDING":"No","PET_AREA":"Yes","Manager":null,"Superindendent":null}},{"type":"Feature","id":55,"geometry":{"type":"Point","coordinates":[-116.47066696682582,35.034637069787046]},"properties":{"OBJECTID":55,"CT_NO":"90800057","MAP_LABEL_NAME":"Clyde V. Kane Safety Roadside Rest Area - Sb","CITY":"Newberry Springs","ZIPCODE":"92365","POSTMILE_P":" ","POSTMILE":107.4,"POSTMILE_S":" ","LATITUDE":35.034632,"LONGITUDE":-116.470655,"DISTRICT":"8","CO_CODE":"SBD","COUNTY":"San Bernardino","ROUTE":"15","REST_AREA_NAME":"Clyde V. Kane","LANDMARK_LOCATION":"30 mi. E. of Barstow","TRAFFIC_DIRECTION":"S","RESTROOM":"Yes","WATER":"Yes","PICNICTAB":"Yes","PHONE":"Yes","HANDICAP":"Yes","RV_STATION":"No","VENDING":"No","PET_AREA":"Yes","Manager":null,"Superindendent":null}},{"type":"Feature","id":56,"geometry":{"type":"Point","coordinates":[-116.52122795358468,34.80152403978593]},"properties":{"OBJECTID":56,"CT_NO":"90800065","MAP_LABEL_NAME":"Desert Oasis Safety Roadside Rest Area - Wb","CITY":"Newberry Springs","ZIPCODE":"92365","POSTMILE_P":"R","POSTMILE":29.3,"POSTMILE_S":" ","LATITUDE":34.801519,"LONGITUDE":-116.521216,"DISTRICT":"8","CO_CODE":"SBD","COUNTY":"San Bernardino","ROUTE":"40","REST_AREA_NAME":"Desert Oasis","LANDMARK_LOCATION":"9 mi. E. of Newberry","TRAFFIC_DIRECTION":"E","RESTROOM":"Yes","WATER":"Yes","PICNICTAB":"Yes","PHONE":"Yes","HANDICAP":"Yes","RV_STATION":"No","VENDING":"No","PET_AREA":"Yes","Manager":null,"Superindendent":null}},{"type":"Feature","id":57,"geometry":{"type":"Point","coordinates":[-115.21908172144653,34.808145117809275]},"properties":{"OBJECTID":57,"CT_NO":"90800074","MAP_LABEL_NAME":"John Wilke Safety Roadside Rest Area - Eb","CITY":"Baker","ZIPCODE":"92309","POSTMILE_P":" ","POSTMILE":105.5,"POSTMILE_S":" ","LATITUDE":34.80814,"LONGITUDE":-115.21907,"DISTRICT":"8","CO_CODE":"SBD","COUNTY":"San Bernardino","ROUTE":"40","REST_AREA_NAME":"John Wilkie","LANDMARK_LOCATION":"45 mi. W. of Needles","TRAFFIC_DIRECTION":"E","RESTROOM":"Yes","WATER":"Yes","PICNICTAB":"Yes","PHONE":"Yes","HANDICAP":"Yes","RV_STATION":"No","VENDING":"No","PET_AREA":"Yes","Manager":null,"Superindendent":null}},{"type":"Feature","id":58,"geometry":{"type":"Point","coordinates":[-115.21953372135813,34.810520117922366]},"properties":{"OBJECTID":58,"CT_NO":"90800075","MAP_LABEL_NAME":"John Wilke Safety Roadside Rest Area - Wb","CITY":"Baker","ZIPCODE":"92309","POSTMILE_P":" ","POSTMILE":105.5,"POSTMILE_S":" ","LATITUDE":34.810515,"LONGITUDE":-115.219522,"DISTRICT":"8","CO_CODE":"SBD","COUNTY":"San Bernardino","ROUTE":"40","REST_AREA_NAME":"John Wilkie","LANDMARK_LOCATION":"45 mi. W. of Needles","TRAFFIC_DIRECTION":"W","RESTROOM":"Yes","WATER":"Yes","PICNICTAB":"Yes","PHONE":"Yes","HANDICAP":"Yes","RV_STATION":"No","VENDING":"No","PET_AREA":"Yes","Manager":null,"Superindendent":null}},{"type":"Feature","id":59,"geometry":{"type":"Point","coordinates":[-115.69933886526762,35.43356316371319]},"properties":{"OBJECTID":59,"CT_NO":"90800119","MAP_LABEL_NAME":"Valley Wells Safety Roadside Rest Area - Eb","CITY":"Nipton","ZIPCODE":"92364","POSTMILE_P":" ","POSTMILE":161.15,"POSTMILE_S":" ","LATITUDE":35.433558,"LONGITUDE":-115.699327,"DISTRICT":"8","CO_CODE":"SBD","COUNTY":"San Bernardino","ROUTE":"15","REST_AREA_NAME":"Valley Wells","LANDMARK_LOCATION":"26 mi. W. of Nevada State Line","TRAFFIC_DIRECTION":"N","RESTROOM":"Yes","WATER":"Yes","PICNICTAB":"Yes","PHONE":"Yes","HANDICAP":"Yes","RV_STATION":"No","VENDING":"Yes","PET_AREA":"Yes","Manager":null,"Superindendent":null}},{"type":"Feature","id":60,"geometry":{"type":"Point","coordinates":[-115.70151686480996,35.43586816293037]},"properties":{"OBJECTID":60,"CT_NO":"90800120","MAP_LABEL_NAME":"Valley Wells Safety Roadside Rest Area - Wb\n","CITY":"Nipton","ZIPCODE":"92364","POSTMILE_P":" ","POSTMILE":161.15,"POSTMILE_S":" ","LATITUDE":35.435863,"LONGITUDE":-115.701505,"DISTRICT":"8","CO_CODE":"SBD","COUNTY":"San Bernardino","ROUTE":"15","REST_AREA_NAME":"Valley Wells","LANDMARK_LOCATION":"26 mi. W. of Nevada State Line","TRAFFIC_DIRECTION":"S","RESTROOM":"Yes","WATER":"Yes","PICNICTAB":"Yes","PHONE":"Yes","HANDICAP":"Yes","RV_STATION":"No","VENDING":"Yes","PET_AREA":"Yes","Manager":null,"Superindendent":null}},{"type":"Feature","id":61,"geometry":{"type":"Point","coordinates":[-116.66388590581597,33.92150492992989]},"properties":{"OBJECTID":61,"CT_NO":"90800127","MAP_LABEL_NAME":"Whitewater Safety Roadside Rest Area - Eb","CITY":"Palm Springs","ZIPCODE":"92262","POSTMILE_P":" ","POSTMILE":26.18,"POSTMILE_S":" ","LATITUDE":33.9215,"LONGITUDE":-116.663874,"DISTRICT":"8","CO_CODE":"RIV","COUNTY":"Riverside","ROUTE":"10","REST_AREA_NAME":"Whitewater","LANDMARK_LOCATION":"1 mi. W. of Whitewater O.C.","TRAFFIC_DIRECTION":"E","RESTROOM":"Yes","WATER":"Yes","PICNICTAB":"Yes","PHONE":"Yes","HANDICAP":"Yes","RV_STATION":"No","VENDING":"No","PET_AREA":"Yes","Manager":null,"Superindendent":null}},{"type":"Feature","id":62,"geometry":{"type":"Point","coordinates":[-116.66409690570318,33.92312992965978]},"properties":{"OBJECTID":62,"CT_NO":"90800128","MAP_LABEL_NAME":"Whitewater Safety Roadside Rest Area - Wb","CITY":"Palm Springs","ZIPCODE":"92262","POSTMILE_P":" ","POSTMILE":26.18,"POSTMILE_S":" ","LATITUDE":33.923125,"LONGITUDE":-116.664085,"DISTRICT":"8","CO_CODE":"RIV","COUNTY":"Riverside","ROUTE":"10","REST_AREA_NAME":"Whitewater","LANDMARK_LOCATION":"1 mi. W. of Whitewater O.C.","TRAFFIC_DIRECTION":"W","RESTROOM":"Yes","WATER":"Yes","PICNICTAB":"Yes","PHONE":"Yes","HANDICAP":"Yes","RV_STATION":"No","VENDING":"No","PET_AREA":"Yes","Manager":null,"Superindendent":null}},{"type":"Feature","id":63,"geometry":{"type":"Point","coordinates":[-117.07686698462253,34.01208091773745]},"properties":{"OBJECTID":63,"CT_NO":"90800129","MAP_LABEL_NAME":"Wildwood Safety Roadside Rest Area - Eb","CITY":"Beaumont","ZIPCODE":"92223","POSTMILE_P":" ","POSTMILE":38.16,"POSTMILE_S":" ","LATITUDE":34.012076,"LONGITUDE":-117.076855,"DISTRICT":"8","CO_CODE":"SBD","COUNTY":"San Bernardino","ROUTE":"10","REST_AREA_NAME":"Wildwood","LANDMARK_LOCATION":"1 mi. W. of Calimesa","TRAFFIC_DIRECTION":"E","RESTROOM":"Yes","WATER":"Yes","PICNICTAB":"Yes","PHONE":"Yes","HANDICAP":"Yes","RV_STATION":"No","VENDING":"No","PET_AREA":"Yes","Manager":null,"Superindendent":null}},{"type":"Feature","id":64,"geometry":{"type":"Point","coordinates":[-114.90074156603016,33.61042698838248]},"properties":{"OBJECTID":64,"CT_NO":"90800130","MAP_LABEL_NAME":"Wiley'S Well Safety Roadside Rest Area - Eb & Wb","CITY":"Blythe","ZIPCODE":"92225","POSTMILE_P":" ","POSTMILE":135,"POSTMILE_S":" ","LATITUDE":33.610422,"LONGITUDE":-114.90073,"DISTRICT":"8","CO_CODE":"RIV","COUNTY":"Riverside","ROUTE":"10","REST_AREA_NAME":"Wiley's Well","LANDMARK_LOCATION":"15 mi. W. of Blythe","TRAFFIC_DIRECTION":"E & W","RESTROOM":"Yes","WATER":"Yes","PICNICTAB":"Yes","PHONE":"Yes","HANDICAP":"Yes","RV_STATION":"No","VENDING":"No","PET_AREA":"Yes","Manager":null,"Superindendent":null}},{"type":"Feature","id":65,"geometry":{"type":"Point","coordinates":[-117.94631831529503,36.04480709041637]},"properties":{"OBJECTID":65,"CT_NO":"90900017","MAP_LABEL_NAME":"Coso Jct Safety Roadside Rest Area Nb & Sb","CITY":"Olancha","ZIPCODE":"93545","POSTMILE_P":" ","POSTMILE":17.7,"POSTMILE_S":" ","LATITUDE":36.044802,"LONGITUDE":-117.946306,"DISTRICT":"9","CO_CODE":"INY","COUNTY":"Inyo","ROUTE":"395","REST_AREA_NAME":"Coso Junction","LANDMARK_LOCATION":"17 mi. S. of Jct. Rte. 395/190","TRAFFIC_DIRECTION":"N & S","RESTROOM":"Yes","WATER":"Yes","PICNICTAB":"Yes","PHONE":"Yes","HANDICAP":"Yes","RV_STATION":"No","VENDING":"No","PET_AREA":"Yes","Manager":"Andy Richard","Superindendent":null}},{"type":"Feature","id":66,"geometry":{"type":"Point","coordinates":[-118.96926566520224,37.73113818953755]},"properties":{"OBJECTID":66,"CT_NO":"90900020","MAP_LABEL_NAME":"Crestview Safety Roadside Rest Area Nb & Sb","CITY":"June Lake","ZIPCODE":"93529","POSTMILE_P":" ","POSTMILE":32.2,"POSTMILE_S":" ","LATITUDE":37.731133,"LONGITUDE":-118.969253,"DISTRICT":"9","CO_CODE":"MNO","COUNTY":" Mono","ROUTE":"395","REST_AREA_NAME":"Crestview","LANDMARK_LOCATION":"6.4 mi. N. of Jct. 203","TRAFFIC_DIRECTION":"N & S","RESTROOM":"Yes","WATER":"Yes","PICNICTAB":"Yes","PHONE":"Yes","HANDICAP":"Yes","RV_STATION":"No","VENDING":"No","PET_AREA":"Yes","Manager":"Andy Richard","Superindendent":"Kevin Warner"}},{"type":"Feature","id":67,"geometry":{"type":"Point","coordinates":[-118.23891445697599,36.9456871624936]},"properties":{"OBJECTID":67,"CT_NO":"90900023","MAP_LABEL_NAME":"Division Creek Safety Roadside Rest Area Nb & Sb","CITY":"Independence","ZIPCODE":"93526","POSTMILE_P":"R","POSTMILE":83.9,"POSTMILE_S":" ","LATITUDE":36.945682,"LONGITUDE":-118.238902,"DISTRICT":"9","CO_CODE":"INY","COUNTY":"Inyo","ROUTE":"395","REST_AREA_NAME":"Division Creek","LANDMARK_LOCATION":"10 mi. N. of Independence","TRAFFIC_DIRECTION":"N & S","RESTROOM":"Yes","WATER":"Yes","PICNICTAB":"Yes","PHONE":"Yes","HANDICAP":"Yes","RV_STATION":"No","VENDING":"No","PET_AREA":"Yes","Manager":"Andy Richard","Superindendent":"Kevin Warner"}},{"type":"Feature","id":68,"geometry":{"type":"Point","coordinates":[-120.78225986291012,36.864617980591404]},"properties":{"OBJECTID":68,"CT_NO":"91000030","MAP_LABEL_NAME":"John \" Chuck\" Erreca Safety Roadside Rest Area - Nb","CITY":"Firebaugh","ZIPCODE":"93622","POSTMILE_P":" ","POSTMILE":0.7,"POSTMILE_S":" ","LATITUDE":36.864613,"LONGITUDE":-120.782247,"DISTRICT":"10","CO_CODE":"MER","COUNTY":"Merced","ROUTE":"5","REST_AREA_NAME":"John \"Chuck\" Erreca","LANDMARK_LOCATION":"0.7 mi. N. of Fresno Co. Line","TRAFFIC_DIRECTION":"N","RESTROOM":"Yes","WATER":"Yes","PICNICTAB":"Yes","PHONE":"Yes","HANDICAP":"Yes","RV_STATION":"No","VENDING":"Yes","PET_AREA":"Yes","Manager":null,"Superindendent":null}},{"type":"Feature","id":69,"geometry":{"type":"Point","coordinates":[-120.78381786320966,36.86243998096735]},"properties":{"OBJECTID":69,"CT_NO":"91000031","MAP_LABEL_NAME":"John \" Chuck\" Erreca Safety Roadside Rest Area  - Sb","CITY":"Firebaugh","ZIPCODE":"93622","POSTMILE_P":" ","POSTMILE":0.7,"POSTMILE_S":" ","LATITUDE":36.862435,"LONGITUDE":-120.783805,"DISTRICT":"10","CO_CODE":"MER","COUNTY":"Merced","ROUTE":"5","REST_AREA_NAME":"John \"Chuck\" Erreca","LANDMARK_LOCATION":"0.7 mi. N. of Fresno Co. Line","TRAFFIC_DIRECTION":"S","RESTROOM":"Yes","WATER":"Yes","PICNICTAB":"Yes","PHONE":"Yes","HANDICAP":"Yes","RV_STATION":"No","VENDING":"Yes","PET_AREA":"Yes","Manager":null,"Superindendent":null}},{"type":"Feature","id":70,"geometry":{"type":"Point","coordinates":[-120.82663493563815,37.46629703185478]},"properties":{"OBJECTID":70,"CT_NO":"91000078","MAP_LABEL_NAME":"Enoch Christoffersen Safety Roadside Rest Area - Nb","CITY":"Turlock","ZIPCODE":"95380","POSTMILE_P":" ","POSTMILE":0.5,"POSTMILE_S":" ","LATITUDE":37.466292,"LONGITUDE":-120.826622,"DISTRICT":"10","CO_CODE":"STA","COUNTY":"Stanislaus","ROUTE":"99","REST_AREA_NAME":"Enoch Christoffersen","LANDMARK_LOCATION":"2.3 mi.S. of Turlock","TRAFFIC_DIRECTION":"N","RESTROOM":"Yes","WATER":"Yes","PICNICTAB":"Yes","PHONE":"Yes","HANDICAP":"Yes","RV_STATION":"No","VENDING":"Yes","PET_AREA":"Yes","Manager":null,"Superindendent":null}},{"type":"Feature","id":71,"geometry":{"type":"Point","coordinates":[-120.8275729366949,37.46425203289196]},"properties":{"OBJECTID":71,"CT_NO":"91000079","MAP_LABEL_NAME":"Enoch Christoffersen Safety Roadside Rest Area - Sb","CITY":"Turlock","ZIPCODE":"95380","POSTMILE_P":" ","POSTMILE":0.5,"POSTMILE_S":" ","LATITUDE":37.464247,"LONGITUDE":-120.82756,"DISTRICT":"10","CO_CODE":"STA","COUNTY":"Stanislaus","ROUTE":"99","REST_AREA_NAME":"Enoch Christoffersen","LANDMARK_LOCATION":"2.3 mi.S. of Turlock","TRAFFIC_DIRECTION":"S","RESTROOM":"Yes","WATER":"Yes","PICNICTAB":"Yes","PHONE":"Yes","HANDICAP":"Yes","RV_STATION":"No","VENDING":"Yes","PET_AREA":"Yes","Manager":null,"Superindendent":null}},{"type":"Feature","id":72,"geometry":{"type":"Point","coordinates":[-121.3223810265225,37.58394700765046]},"properties":{"OBJECTID":72,"CT_NO":"91000082","MAP_LABEL_NAME":"Westley Safety Roadside Rest Area - Nb","CITY":"Tracy","ZIPCODE":"95376","POSTMILE_P":" ","POSTMILE":27.2,"POSTMILE_S":" ","LATITUDE":37.583942,"LONGITUDE":-121.322368,"DISTRICT":"10","CO_CODE":"STA","COUNTY":"Stanislaus","ROUTE":"5","REST_AREA_NAME":"Westley","LANDMARK_LOCATION":"0.9 mi. S. of San Joaquin Co. Line","TRAFFIC_DIRECTION":"N","RESTROOM":"Yes","WATER":"Yes","PICNICTAB":"Yes","PHONE":"Yes","HANDICAP":"Yes","RV_STATION":"Yes","VENDING":"Yes","PET_AREA":"Yes","Manager":null,"Superindendent":null}},{"type":"Feature","id":73,"geometry":{"type":"Point","coordinates":[-121.32361002693406,37.581253007089266]},"properties":{"OBJECTID":73,"CT_NO":"91000083","MAP_LABEL_NAME":"Westley Safety Roadside Rest Area - Sb","CITY":"Tracy","ZIPCODE":"95376","POSTMILE_P":" ","POSTMILE":27.2,"POSTMILE_S":" ","LATITUDE":37.581248,"LONGITUDE":-121.323597,"DISTRICT":"10","CO_CODE":"STA","COUNTY":"Stanislaus","ROUTE":"5","REST_AREA_NAME":"Westley","LANDMARK_LOCATION":"0.9 mi. S. of San Joaquin Co. Line","TRAFFIC_DIRECTION":"S","RESTROOM":"Yes","WATER":"Yes","PICNICTAB":"Yes","PHONE":"Yes","HANDICAP":"Yes","RV_STATION":"Yes","VENDING":"Yes","PET_AREA":"Yes","Manager":null,"Superindendent":null}},{"type":"Feature","id":74,"geometry":{"type":"Point","coordinates":[-117.43614898919324,33.26896881135534]},"properties":{"OBJECTID":74,"CT_NO":"91100003","MAP_LABEL_NAME":"Aliso Creek Safety Roadside Rest Area - Nb","CITY":"Oceanside","ZIPCODE":"92054","POSTMILE_P":" ","POSTMILE":0,"POSTMILE_S":" ","LATITUDE":33.268964,"LONGITUDE":-117.436137,"DISTRICT":"11","CO_CODE":"SD","COUNTY":"San Diego","ROUTE":"5","REST_AREA_NAME":"Aliso Creek","LANDMARK_LOCATION":"5.8 mi.N. of Oceanside","TRAFFIC_DIRECTION":"N","RESTROOM":"Yes","WATER":"Yes","PICNICTAB":"Yes","PHONE":"Yes","HANDICAP":"Yes","RV_STATION":"Yes","VENDING":"Yes","PET_AREA":"Yes","Manager":null,"Superindendent":null}},{"type":"Feature","id":75,"geometry":{"type":"Point","coordinates":[-117.44375299001975,33.27204881083276]},"properties":{"OBJECTID":75,"CT_NO":"91100004","MAP_LABEL_NAME":"Aliso Creek Safety Roadside Rest Area - Sb","CITY":"Oceanside","ZIPCODE":"92054","POSTMILE_P":" ","POSTMILE":0,"POSTMILE_S":" ","LATITUDE":33.272044,"LONGITUDE":-117.443741,"DISTRICT":"11","CO_CODE":"SD","COUNTY":"San Diego","ROUTE":"5","REST_AREA_NAME":"Aliso Creek","LANDMARK_LOCATION":"5.8 mi. N. of Oceanside","TRAFFIC_DIRECTION":"S","RESTROOM":"Yes","WATER":"Yes","PICNICTAB":"Yes","PHONE":"Yes","HANDICAP":"Yes","RV_STATION":"Yes","VENDING":"Yes","PET_AREA":"Yes","Manager":null,"Superindendent":null}},{"type":"Feature","id":76,"geometry":{"type":"Point","coordinates":[-116.48390378626779,32.75803680062585]},"properties":{"OBJECTID":76,"CT_NO":"91100012","MAP_LABEL_NAME":"Buckman Springs Safety Roadside Rest Area\nEb & Wb","CITY":"Pine Valley","ZIPCODE":"92062","POSTMILE_P":" ","POSTMILE":0,"POSTMILE_S":" ","LATITUDE":32.758032,"LONGITUDE":-116.483892,"DISTRICT":"11","CO_CODE":"SD","COUNTY":"San Diego","ROUTE":"8","REST_AREA_NAME":"Buckman Springs","LANDMARK_LOCATION":"3.3 mi. E. of Pine Valley","TRAFFIC_DIRECTION":"E & W","RESTROOM":"Yes","WATER":"Yes","PICNICTAB":"Yes","PHONE":"Yes","HANDICAP":"Yes","RV_STATION":"Yes","VENDING":"No","PET_AREA":"Yes","Manager":null,"Superindendent":null}},{"type":"Feature","id":77,"geometry":{"type":"Point","coordinates":[-114.89033249937216,32.7374218789243]},"properties":{"OBJECTID":77,"CT_NO":"91100067","MAP_LABEL_NAME":"Sand Hills Safety Roadside Rest Area - Eb & Wb","CITY":" ","ZIPCODE":" ","POSTMILE_P":" ","POSTMILE":0,"POSTMILE_S":" ","LATITUDE":32.737417,"LONGITUDE":-114.890321,"DISTRICT":"11","CO_CODE":"IMP","COUNTY":"Imperial","ROUTE":"8","REST_AREA_NAME":"Sand Hills","LANDMARK_LOCATION":"20 mi. W. of Arizona State Line","TRAFFIC_DIRECTION":"E & W","RESTROOM":"Yes","WATER":"Yes","PICNICTAB":"N","PHONE":"N","HANDICAP":"Yes","RV_STATION":"No","VENDING":"No","PET_AREA":"N","Manager":null,"Superindendent":null}},{"type":"Feature","id":78,"geometry":{"type":"Point","coordinates":[-115.669857642558,32.773377843173755]},"properties":{"OBJECTID":78,"CT_NO":"91100074","MAP_LABEL_NAME":"Sunbeam Safety Roadside Rest Area - Eb","CITY":"El Centro","ZIPCODE":"92243","POSTMILE_P":"R","POSTMILE":31.3,"POSTMILE_S":" ","LATITUDE":32.773373,"LONGITUDE":-115.669846,"DISTRICT":"11","CO_CODE":"IMP","COUNTY":"Imperial","ROUTE":"8","REST_AREA_NAME":"Sunbeam","LANDMARK_LOCATION":"6 mi. W. of El Centro","TRAFFIC_DIRECTION":"E","RESTROOM":"Yes","WATER":"Yes","PICNICTAB":"Yes","PHONE":"Yes","HANDICAP":"Yes","RV_STATION":"Yes","VENDING":"Yes","PET_AREA":"Yes","Manager":null,"Superindendent":null}},{"type":"Feature","id":79,"geometry":{"type":"Point","coordinates":[-115.66903864222527,32.77465784431105]},"properties":{"OBJECTID":79,"CT_NO":"91100075","MAP_LABEL_NAME":"Sunbeam Safety Roadside Rest Area - Wb","CITY":"El Centro","ZIPCODE":"92243","POSTMILE_P":"R","POSTMILE":31.3,"POSTMILE_S":" ","LATITUDE":32.774653,"LONGITUDE":-115.669027,"DISTRICT":"11","CO_CODE":"IMP","COUNTY":"Imperial","ROUTE":"8","REST_AREA_NAME":"Sunbeam","LANDMARK_LOCATION":"6 mi. W. of El Centro","TRAFFIC_DIRECTION":"W","RESTROOM":"Yes","WATER":"Yes","PICNICTAB":"Yes","PHONE":"Yes","HANDICAP":"Yes","RV_STATION":"Yes","VENDING":"No","PET_AREA":"Yes","Manager":null,"Superindendent":null}},{"type":"Feature","id":80,"geometry":{"type":"Point","coordinates":[-115.52098563836624,33.082581889686985]},"properties":{"OBJECTID":80,"CT_NO":"91100081","MAP_LABEL_NAME":"Two Rivers Safety Roadside Rest Area - Nb & Sb","CITY":"Calipatria","ZIPCODE":"92233","POSTMILE_P":" ","POSTMILE":0,"POSTMILE_S":" ","LATITUDE":33.082577,"LONGITUDE":-115.520974,"DISTRICT":"11","CO_CODE":"IMP","COUNTY":"Imperial","ROUTE":"111","REST_AREA_NAME":"Two Rivers","LANDMARK_LOCATION":"2.5 mi. S. of Calipatria","TRAFFIC_DIRECTION":"N & S","RESTROOM":"Yes","WATER":"Yes","PICNICTAB":"Yes","PHONE":"Yes","HANDICAP":"Yes","RV_STATION":"Yes","VENDING":"No","PET_AREA":"Yes","Manager":null,"Superindendent":null}},{"type":"Feature","id":81,"geometry":{"type":"Point","coordinates":[-119.52071962229948,36.492084031179495]},"properties":{"OBJECTID":81,"CT_NO":"90600107","MAP_LABEL_NAME":"C. H. Warlow Safety Roadside Rest Area Nb & Sb","CITY":"Kingsburg","ZIPCODE":"93631","POSTMILE_P":" ","POSTMILE":51.8,"POSTMILE_S":" ","LATITUDE":36.492079,"LONGITUDE":-119.520707,"DISTRICT":"6","CO_CODE":"TUL","COUNTY":"Tulare","ROUTE":"99","REST_AREA_NAME":"C. H. Warlow","LANDMARK_LOCATION":"At Dodge Ave. Near Kings River","TRAFFIC_DIRECTION":"N & S","RESTROOM":"Yes","WATER":"Yes","PICNICTAB":"Yes","PHONE":"Yes","HANDICAP":"Yes","RV_STATION":"No","VENDING":"Yes","PET_AREA":"Yes","Manager":null,"Superindendent":null}},{"type":"Feature","id":82,"geometry":{"type":"Point","coordinates":[-122.2703395129296,40.27040315206914]},"properties":{"OBJECTID":82,"CT_NO":"99900178","MAP_LABEL_NAME":"Herbert S. Miles Safety Roadside Rest Area - Sb","CITY":"Red Bluff","ZIPCODE":"96080","POSTMILE_P":" ","POSTMILE":34.7,"POSTMILE_S":" ","LATITUDE":40.270398,"LONGITUDE":-122.270326,"DISTRICT":"2","CO_CODE":"TEH","COUNTY":"Tehama","ROUTE":"5","REST_AREA_NAME":"Herbert S. Miles","LANDMARK_LOCATION":"4.4 mi. N. of Red Bluff","TRAFFIC_DIRECTION":"S","RESTROOM":"Yes","WATER":"Yes","PICNICTAB":"Yes","PHONE":"Yes","HANDICAP":"Yes","RV_STATION":"No","VENDING":"No","PET_AREA":"Yes","Manager":"Roger Lucas","Superindendent":"Scott Porter"}},{"type":"Feature","id":83,"geometry":{"type":"Point","coordinates":[-122.20144245684943,39.94797413467603]},"properties":{"OBJECTID":83,"CT_NO":"99900228","MAP_LABEL_NAME":"Lt. John C. Helmick Safety Roadside Rest Area - Sb","CITY":"Corning","ZIPCODE":"96021","POSTMILE_P":" ","POSTMILE":10.5,"POSTMILE_S":" ","LATITUDE":39.947969,"LONGITUDE":-122.201429,"DISTRICT":"2","CO_CODE":"TEH","COUNTY":"Tehama","ROUTE":"5","REST_AREA_NAME":"LT John C. Helmick","LANDMARK_LOCATION":"1.3 mi. N. of Corning Road","TRAFFIC_DIRECTION":"S","RESTROOM":"Yes","WATER":"Yes","PICNICTAB":"Yes","PHONE":"Yes","HANDICAP":"Yes","RV_STATION":"No","VENDING":"No","PET_AREA":"Yes","Manager":"Roger Lucas","Superindendent":"Scott Porter"}},{"type":"Feature","id":84,"geometry":{"type":"Point","coordinates":[-122.45686072006087,41.47766222569307]},"properties":{"OBJECTID":84,"CT_NO":"99900230","MAP_LABEL_NAME":"Weed Airport Safety Roadside Rest Area - Sb","CITY":"Weed","ZIPCODE":"96094","POSTMILE_P":" ","POSTMILE":25.8,"POSTMILE_S":" ","LATITUDE":41.477657,"LONGITUDE":-122.456847,"DISTRICT":"2","CO_CODE":"SIS","COUNTY":"Siskiyou","ROUTE":"5","REST_AREA_NAME":"Weed Airport","LANDMARK_LOCATION":"6. Mi. N. of Weed","TRAFFIC_DIRECTION":"S","RESTROOM":"Yes","WATER":"Yes","PICNICTAB":"Yes","PHONE":"Yes","HANDICAP":"Yes","RV_STATION":"No","VENDING":"No","PET_AREA":"Yes","Manager":"Roger Lucas","Superindendent":null}},{"type":"Feature","id":85,"geometry":{"type":"Point","coordinates":[-121.09012337410462,40.58674827519266]},"properties":{"OBJECTID":85,"CT_NO":"99900235","MAP_LABEL_NAME":"Bogard Safety Roadside Rest Area - Eb & Wb","CITY":"Susanville","ZIPCODE":"96130","POSTMILE_P":" ","POSTMILE":14.5,"POSTMILE_S":" ","LATITUDE":40.586743,"LONGITUDE":-121.09011,"DISTRICT":"2","CO_CODE":"LAS","COUNTY":"Lassen","ROUTE":"44","REST_AREA_NAME":"Bogard","LANDMARK_LOCATION":"28 mi. N.W. of Susanville","TRAFFIC_DIRECTION":"E & W","RESTROOM":"Yes","WATER":"Yes","PICNICTAB":"Yes","PHONE":"Yes","HANDICAP":"Yes","RV_STATION":"No","VENDING":"No","PET_AREA":"Yes","Manager":"Roger Lucas","Superindendent":"Scott Porter"}},{"type":"Feature","id":86,"geometry":{"type":"Point","coordinates":[-122.31753459496386,40.793572187451254]},"properties":{"OBJECTID":86,"CT_NO":"90200131","MAP_LABEL_NAME":"O'Brien Safety Roadside Rest Area - Nb","CITY":"Shasta Lake","ZIPCODE":"96001","POSTMILE_P":"R","POSTMILE":31.1,"POSTMILE_S":" ","LATITUDE":40.793567,"LONGITUDE":-122.317521,"DISTRICT":"2","CO_CODE":"SHA","COUNTY":"Shasta","ROUTE":"5","REST_AREA_NAME":"O'Brien","LANDMARK_LOCATION":"15 mi. N. of Redding, Shasta County","TRAFFIC_DIRECTION":"N","RESTROOM":"Yes","WATER":"Yes","PICNICTAB":"Yes","PHONE":"Yes","HANDICAP":"Yes","RV_STATION":"No","VENDING":"No","PET_AREA":"Yes","Manager":"Roger Lucas","Superindendent":"Scott Porter"}},{"type":"Feature","id":87,"geometry":{"type":"Point","coordinates":[-116.5248759544613,34.80021603923891]},"properties":{"OBJECTID":87,"CT_NO":"99902875","MAP_LABEL_NAME":"Desert Oasis Safety Roadside Rest Area - Eb","CITY":"Newberry Springs","ZIPCODE":"92365","POSTMILE_P":"R","POSTMILE":29.11,"POSTMILE_S":" ","LATITUDE":34.800211,"LONGITUDE":-116.524864,"DISTRICT":"8","CO_CODE":"SBD","COUNTY":"San Bernardino","ROUTE":"40","REST_AREA_NAME":"Desert Oasis","LANDMARK_LOCATION":"9 mi. E. of Newberry","TRAFFIC_DIRECTION":"W","RESTROOM":"Yes","WATER":"Yes","PICNICTAB":"Yes","PHONE":"Yes","HANDICAP":"Yes","RV_STATION":"No","VENDING":"No","PET_AREA":"Yes","Manager":null,"Superindendent":null}}]}